{
  "type": "FeatureCollection",
  "features": [
    {
      "type": "Feature",
      "properties": {
        "norad_id": 66531,
        "name": "STARLINK-35960",
        "group": "last-30-days",
        "lat": -31.76634946297794,
        "lon": -68.27563607358817,
        "alt_km": 417.7643142750194,
        "timestamp": "2025-12-09T23:33:22.608306+00:00",
        "meta_object_name": "STARLINK-35960",
        "meta_object_id": "2025-265R",
        "meta_epoch": "2025-12-09T14:00:01.999872",
        "meta_mean_motion": 15.51903867,
        "meta_eccentricity": 0.00011161,
        "meta_inclination": 43.0001,
        "meta_ra_of_asc_node": 72.412,
        "meta_arg_of_pericenter": 289.4884,
        "meta_mean_anomaly": 234.9799,
        "meta_ephemeris_type": 0,
        "meta_classification_type": "U",
        "meta_norad_cat_id": 66531,
        "meta_element_set_no": 999,
        "meta_rev_at_epoch": 448,
        "meta_bstar": -0.030738011,
        "meta_mean_motion_dot": -0.01690773,
        "meta_mean_motion_ddot": 0,
        "tle_line1": "1 66531U 25265R   25343.58335648 -.01690773  00000+0 -30738-1 0  9996",
        "tle_line2": "2 66531  43.0001  72.4120 0001116 289.4884 234.9799 15.51903867  4483"
      },
      "geometry": {
        "type": "Point",
        "coordinates": [
          -68.27563607358817,
          -31.76634946297794
        ]
      }
    },
    {
      "type": "Feature",
      "properties": {
        "norad_id": 66532,
        "name": "STARLINK-35914",
        "group": "last-30-days",
        "lat": -32.72609936279113,
        "lon": -66.3217453870659,
        "alt_km": 417.6653992548099,
        "timestamp": "2025-12-09T23:33:22.608319+00:00",
        "meta_object_name": "STARLINK-35914",
        "meta_object_id": "2025-265S",
        "meta_epoch": "2025-12-09T14:00:01.999872",
        "meta_mean_motion": 15.51908749,
        "meta_eccentricity": 0.00014212,
        "meta_inclination": 42.9997,
        "meta_ra_of_asc_node": 72.4082,
        "meta_arg_of_pericenter": 287.5428,
        "meta_mean_anomaly": 238.8445,
        "meta_ephemeris_type": 0,
        "meta_classification_type": "U",
        "meta_norad_cat_id": 66532,
        "meta_element_set_no": 999,
        "meta_rev_at_epoch": 448,
        "meta_bstar": -0.03095321,
        "meta_mean_motion_dot": -0.01701777,
        "meta_mean_motion_ddot": 0,
        "tle_line1": "1 66532U 25265S   25343.58335648 -.01701777  00000+0 -30953-1 0  9993",
        "tle_line2": "2 66532  42.9997  72.4082 0001421 287.5428 238.8445 15.51908749  4480"
      },
      "geometry": {
        "type": "Point",
        "coordinates": [
          -66.3217453870659,
          -32.72609936279113
        ]
      }
    },
    {
      "type": "Feature",
      "properties": {
        "norad_id": 66533,
        "name": "STARLINK-35707",
        "group": "last-30-days",
        "lat": -33.65670271938785,
        "lon": -64.32394596290138,
        "alt_km": 417.68964111569767,
        "timestamp": "2025-12-09T23:33:22.608331+00:00",
        "meta_object_name": "STARLINK-35707",
        "meta_object_id": "2025-265T",
        "meta_epoch": "2025-12-09T14:00:01.999872",
        "meta_mean_motion": 15.51911622,
        "meta_eccentricity": 0.00013729,
        "meta_inclination": 42.9999,
        "meta_ra_of_asc_node": 72.4033,
        "meta_arg_of_pericenter": 286.5076,
        "meta_mean_anomaly": 241.7971,
        "meta_ephemeris_type": 0,
        "meta_classification_type": "U",
        "meta_norad_cat_id": 66533,
        "meta_element_set_no": 999,
        "meta_rev_at_epoch": 448,
        "meta_bstar": -0.031045437,
        "meta_mean_motion_dot": -0.01706445,
        "meta_mean_motion_ddot": 0,
        "tle_line1": "1 66533U 25265T   25343.58335648 -.01706445  00000+0 -31045-1 0  9994",
        "tle_line2": "2 66533  42.9999  72.4033 0001372 286.5076 241.7971 15.51911622  4483"
      },
      "geometry": {
        "type": "Point",
        "coordinates": [
          -64.32394596290138,
          -33.65670271938785
        ]
      }
    },
    {
      "type": "Feature",
      "properties": {
        "norad_id": 66534,
        "name": "STARLINK-35976",
        "group": "last-30-days",
        "lat": -34.55302873340624,
        "lon": -62.28569943523053,
        "alt_km": 417.6841579377724,
        "timestamp": "2025-12-09T23:33:22.608344+00:00",
        "meta_object_name": "STARLINK-35976",
        "meta_object_id": "2025-265U",
        "meta_epoch": "2025-12-09T14:00:01.999872",
        "meta_mean_motion": 15.51905615,
        "meta_eccentricity": 0.00014024,
        "meta_inclination": 43.0002,
        "meta_ra_of_asc_node": 72.3991,
        "meta_arg_of_pericenter": 285.95,
        "meta_mean_anomaly": 244.2744,
        "meta_ephemeris_type": 0,
        "meta_classification_type": "U",
        "meta_norad_cat_id": 66534,
        "meta_element_set_no": 999,
        "meta_rev_at_epoch": 448,
        "meta_bstar": -0.030900077,
        "meta_mean_motion_dot": -0.01698982,
        "meta_mean_motion_ddot": 0,
        "tle_line1": "1 66534U 25265U   25343.58335648 -.01698982  00000+0 -30900-1 0  9990",
        "tle_line2": "2 66534  43.0002  72.3991 0001402 285.9500 244.2744 15.51905615  4483"
      },
      "geometry": {
        "type": "Point",
        "coordinates": [
          -62.28569943523053,
          -34.55302873340624
        ]
      }
    },
    {
      "type": "Feature",
      "properties": {
        "norad_id": 66535,
        "name": "STARLINK-35514",
        "group": "last-30-days",
        "lat": -35.41605521408043,
        "lon": -60.20006705916442,
        "alt_km": 417.7631144010702,
        "timestamp": "2025-12-09T23:33:22.608356+00:00",
        "meta_object_name": "STARLINK-35514",
        "meta_object_id": "2025-265V",
        "meta_epoch": "2025-12-09T14:00:01.999872",
        "meta_mean_motion": 15.51909263,
        "meta_eccentricity": 0.00012537,
        "meta_inclination": 43.0001,
        "meta_ra_of_asc_node": 72.3942,
        "meta_arg_of_pericenter": 286.5931,
        "meta_mean_anomaly": 245.5444,
        "meta_ephemeris_type": 0,
        "meta_classification_type": "U",
        "meta_norad_cat_id": 66535,
        "meta_element_set_no": 999,
        "meta_rev_at_epoch": 448,
        "meta_bstar": -0.030884389,
        "meta_mean_motion_dot": -0.01698338,
        "meta_mean_motion_ddot": 0,
        "tle_line1": "1 66535U 25265V   25343.58335648 -.01698338  00000+0 -30884-1 0  9997",
        "tle_line2": "2 66535  43.0001  72.3942 0001253 286.5931 245.5444 15.51909263  4482"
      },
      "geometry": {
        "type": "Point",
        "coordinates": [
          -60.20006705916442,
          -35.41605521408043
        ]
      }
    },
    {
      "type": "Feature",
      "properties": {
        "norad_id": 66536,
        "name": "STARLINK-35640",
        "group": "last-30-days",
        "lat": -36.240549757246605,
        "lon": -58.07481844899063,
        "alt_km": 417.70288540738056,
        "timestamp": "2025-12-09T23:33:22.608367+00:00",
        "meta_object_name": "STARLINK-35640",
        "meta_object_id": "2025-265W",
        "meta_epoch": "2025-12-09T14:00:01.999872",
        "meta_mean_motion": 15.5190753,
        "meta_eccentricity": 0.00013981,
        "meta_inclination": 43.0001,
        "meta_ra_of_asc_node": 72.3895,
        "meta_arg_of_pericenter": 285.5428,
        "meta_mean_anomaly": 248.5144,
        "meta_ephemeris_type": 0,
        "meta_classification_type": "U",
        "meta_norad_cat_id": 66536,
        "meta_element_set_no": 999,
        "meta_rev_at_epoch": 446,
        "meta_bstar": -0.030897271,
        "meta_mean_motion_dot": -0.01698948,
        "meta_mean_motion_ddot": 0,
        "tle_line1": "1 66536U 25265W   25343.58335648 -.01698948  00000+0 -30897-1 0  9999",
        "tle_line2": "2 66536  43.0001  72.3895 0001398 285.5428 248.5144 15.51907530  4463"
      },
      "geometry": {
        "type": "Point",
        "coordinates": [
          -58.07481844899063,
          -36.240549757246605
        ]
      }
    },
    {
      "type": "Feature",
      "properties": {
        "norad_id": 66537,
        "name": "STARLINK-35582",
        "group": "last-30-days",
        "lat": -37.027987918095604,
        "lon": -55.90081782696937,
        "alt_km": 417.729194313305,
        "timestamp": "2025-12-09T23:33:22.608378+00:00",
        "meta_object_name": "STARLINK-35582",
        "meta_object_id": "2025-265X",
        "meta_epoch": "2025-12-09T14:00:01.999872",
        "meta_mean_motion": 15.5191213,
        "meta_eccentricity": 0.00012228,
        "meta_inclination": 43,
        "meta_ra_of_asc_node": 72.3847,
        "meta_arg_of_pericenter": 281.1684,
        "meta_mean_anomaly": 254.8014,
        "meta_ephemeris_type": 0,
        "meta_classification_type": "U",
        "meta_norad_cat_id": 66537,
        "meta_element_set_no": 999,
        "meta_rev_at_epoch": 448,
        "meta_bstar": -0.030954148,
        "meta_mean_motion_dot": -0.01701912,
        "meta_mean_motion_ddot": 0,
        "tle_line1": "1 66537U 25265X   25343.58335648 -.01701912  00000+0 -30954-1 0  9990",
        "tle_line2": "2 66537  43.0000  72.3847 0001222 281.1684 254.8014 15.51912130  4482"
      },
      "geometry": {
        "type": "Point",
        "coordinates": [
          -55.90081782696937,
          -37.027987918095604
        ]
      }
    }
  ]
}